AEHF-1 (USA 214)        
1 36868U 10039A   19340.66633690  .00000042  00000-0  00000-0 0  9996
2 36868   2.2891 101.3484 0001904 145.4285  72.2996  1.00275213 29747
CHINASAT 6A (ZX 6A)     
1 37150U 10042A   19340.90588731 -.00000339  00000-0  00000-0 0  9997
2 37150   0.0208 217.3189 0002998 258.9919  50.2475  1.00274842 33995
QZS-1 (MICHIBIKI-1)     
1 37158U 10045A   19340.33274604 -.00000059  00000-0  00000+0 0  9994
2 37158  41.4626 146.3478 0751246 270.3680 277.1353  1.00270640 33805
XM-5                    
1 37185U 10053A   19341.46395845 -.00000189  00000-0  00000+0 0  9993
2 37185   0.0111 310.2754 0001876 115.6790  91.8134  1.00272846 33543
BSAT-3B                 
1 37207U 10056B   19341.04642470 -.00000336  00000-0  00000+0 0  9998
2 37207   0.0387 324.7900 0003825 324.5182 272.7994  1.00274079 33362
BEIDOU 6                
1 37210U 10057A   19340.84098363 -.00000098  00000-0  00000+0 0  9991
2 37210   0.8319  46.7151 0004970 160.2539 331.0940  1.00272208 33374
SKYTERRA 1              
1 37218U 10061A   19341.54421733 -.00000104  00000-0  00000+0 0  9991
2 37218   2.2624 351.9399 0002065 232.6787 306.0389  1.00271332 33325
ZHONGXING-20A           
1 37234U 10064A   19341.44979981 -.00000334  00000-0  00000+0 0  9999
2 37234   0.4081 100.6038 0003815 173.0955  90.5257  1.00275960 33137
HYLAS 1                 
1 37237U 10065A   19341.51895194 -.00000218  00000-0  00000+0 0  9995
2 37237   0.0310 307.8022 0002134 297.3959 298.6350  1.00273381 33109
INTELSAT 17 (IS-17)     
1 37238U 10065B   19341.12471559  .00000013  00000-0  00000+0 0  9990
2 37238   0.0214 286.0203 0002433 326.3580 294.1396  1.00270668 33013
EUTELSAT KA-SAT 9A      
1 37258U 10069A   19341.39355088  .00000078  00000-0  00000+0 0  9994
2 37258   0.0180  10.2857 0003581 343.2096 233.0759  1.00272301 32913
HISPASAT 30W-5          
1 37264U 10070A   19341.09424416 -.00000201  00000-0  00000+0 0  9991
2 37264   0.0226  78.8159 0003164 159.7945 200.8927  1.00270539 32769
KOREASAT 6              
1 37265U 10070B   19341.45535400 -.00000346  00000-0  00000+0 0  9998
2 37265   0.0115 266.7456 0001374   8.8528  80.2880  1.00273412 32780
BEIDOU 8                
1 37384U 11013A   19341.22466435 -.00000213  00000-0  10000-3 0  9992
2 37384  59.0087  63.5751 0046627 204.9081   6.6188  1.00259889 31771
INTELSAT NEW DAWN       
1 37392U 11016A   19341.46164955  .00000172  00000-0  00000+0 0  9990
2 37392   0.0158 236.0450 0001257 353.1699  45.7426  1.00274202 31618
YAHSAT 1A               
1 37393U 11016B   19341.27896799  .00000116  00000-0  00000+0 0  9996
2 37393   0.0175 319.4555 0002425 297.3527 331.8984  1.00270159 31656
SBIRS GEO-1 (USA 230)   
1 37481U 11019A   19341.46836672  .00000006  00000-0  00000+0 0  9990
2 37481   2.2846 336.4171 0001960 274.5688  59.7892  1.00272206 31439
TELSTAR 14R             
1 37602U 11021A   19341.44263208 -.00000264  00000-0  00000+0 0  9992
2 37602   0.0175 337.7258 0001675  29.8596 164.6814  1.00269377 31881
GSAT-8                  
1 37605U 11022A   19341.46618583  .00000101  00000-0  00000+0 0  9997
2 37605   0.0177 308.0764 0008909 311.8093  38.9691  1.00272319 31338
ST-2                    
1 37606U 11022B   19341.11385242 -.00000197  00000-0  00000+0 0  9999
2 37606   0.0195 314.6414 0001668 303.6102 306.3269  1.00274359 31349
CHINASAT 10 (ZX 10)     
1 37677U 11026A   19340.90292128 -.00000338  00000-0  00000-0 0  9995
2 37677   0.0671 271.6612 0003996 294.7247 304.5056  1.00267176 31055
TIANLIAN 1-02           
1 37737U 11032A   19341.56101144 -.00000001  00000-0  00000+0 0  9995
2 37737   2.8748  73.2302 0014659 125.0077 250.7417  1.00273499 30826
GSAT-12                 
1 37746U 11034A   19341.11254387 -.00000150  00000-0  00000+0 0  9991
2 37746   0.0163  20.1512 0004135  44.7245 134.2674  1.00272367 31053
SES-3                   
1 37748U 11035A   19341.52944796 -.00000086  00000-0  00000+0 0  9997
2 37748   0.0408  75.1752 0002217 195.9037 252.5524  1.00272083 30793
KAZSAT-2                
1 37749U 11035B   19340.96991862 -.00000183  00000-0  00000+0 0  9999
2 37749   0.0285 237.1822 0001362 119.5887 154.3790  1.00271261 30667
BEIDOU 9                
1 37763U 11038A   19340.83864566  .00000011  00000-0  10000-3 0  9998
2 37763  54.4208 187.2101 0065705 224.4848  59.2857  1.00290231 30733
ASTRA 1N                
1 37775U 11041A   19341.15188289  .00000135  00000-0  00000+0 0  9994
2 37775   0.0386   7.0176 0001619 320.6305 181.8841  1.00270486 30490
BSAT-3C (JCSAT-110R)    
1 37776U 11041B   19341.04642470 -.00000336  00000-0  00000+0 0  9994
2 37776   0.0104 344.3771 0000179 310.8434 267.0034  1.00273353 30612
PAKSAT-1R               
1 37779U 11042A   19340.60134600  .00000167  00000-0  00000+0 0  9991
2 37779   0.0377 245.3558 0003014   8.4295  75.7976  1.00270803 30364
CHINASAT 1A (ZX 1A)     
1 37804U 11047A   19340.97855501 -.00000323  00000-0  00000+0 0  9990
2 37804   0.0319 257.8141 0001837  71.8887 227.8758  1.00275821 30168
COSMOS 2473             
1 37806U 11048A   19340.73464278 -.00000094  00000-0  00000+0 0  9999
2 37806   0.0778 106.1519 0003235 162.0479  58.0113  1.00271267 30156
SES-2                   
1 37809U 11049A   19341.46674543 -.00000180  00000-0  00000+0 0  9998
2 37809   0.0152  25.0463 0002659 236.1887 255.7635  1.00271325 30102
ARABSAT-5C              
1 37810U 11049B   19341.15188289  .00000138  00000-0  00000+0 0  9995
2 37810   0.0610   3.8864 0002832 236.3632 270.0624  1.00270112 30005
EUTELSAT 7 WEST A       
1 37816U 11051A   19341.39910507 -.00000044  00000-0  00000+0 0  9993
2 37816   0.0615 357.1273 0006899 214.5428   0.5986  1.00272138 30066
QUETZSAT 1              
1 37826U 11054A   19341.43984052 -.00000226  00000-0  00000+0 0  9990
2 37826   0.0241  35.1495 0002932 215.0290 267.1058  1.00273066 30194
INTELSAT 18 (IS-18)     
1 37834U 11056A   19340.70149306  .00000067  00000-0  00000-0 0  9998
2 37834   0.0147 297.5187 0001941 315.2910 254.9316  1.00271071 30039
EUTELSAT 16A            
1 37836U 11057A   19341.15188289  .00000119  00000-0  00000+0 0  9991
2 37836   0.0655   1.8327 0004644 252.4760 252.0253  1.00269537 29889
VIASAT-1                
1 37843U 11059A   19341.08646186 -.00000009  00000-0  00000+0 0  9997
2 37843   0.0182 326.9114 0002685 280.2204 104.4786  1.00271751 30370
ASIASAT 7               
1 37933U 11069A   19341.04555234 -.00000319  00000-0  00000+0 0  9991
2 37933   0.0181 289.4014 0001368 279.9407 348.0831  1.00274910 29553
BEIDOU 10               
1 37948U 11073A   19340.96716262 -.00000152  00000-0  10000-3 0  9992
2 37948  51.8870 300.1958 0062986 214.1186   2.4003  1.00257804 29492
LUCH 5A                 
1 37951U 11074B   19341.60194840 -.00000027  00000-0  00000+0 0  9997
2 37951   2.8376 121.4394 0002255 124.8435 213.4706  1.00274141 29282
NIGCOMSAT 1R            
1 38014U 11077A   19341.11785712  .00000160  00000-0  00000+0 0  9998
2 38014   0.0226 199.8145 0002335 203.4276 117.2946  1.00270771 29121
FENGYUN 2F              
1 38049U 12002A   19341.54932181 -.00000341  00000-0  00000+0 0  9998
2 38049   1.6241  83.3142 0002219 357.4624 304.8976  1.00281109 28982
WGS F4 (USA 233)        
1 38070U 12003A   19341.47202233 -.00000199  00000-0  00000+0 0  9994
2 38070   0.0163 328.7217 0000512 232.2262 133.3521  1.00271692 28812
SES-4                   
1 38087U 12007A   19340.66118998 -.00000154  00000-0  00000-0 0  9992
2 38087   0.0119 354.3314 0002349 280.6725  16.1871  1.00272115 28339
BEIDOU 11               
1 38091U 12008A   19341.53867900  .00000072  00000-0  00000+0 0  9996
2 38091   1.7528  68.2138 0006070 271.2847 349.1417  1.00273087 28577
MUOS-1                  
1 38093U 12009A   19341.54421872 -.00000121  00000-0  00000+0 0  9990
2 38093   2.5714   0.8865 0050713   8.9386 161.9401  1.00339206 28557
INTELSAT 22 (IS-22)     
1 38098U 12011A   19341.47757671 -.00000043  00000-0  00000+0 0  9992
2 38098   0.0129 340.0634 0001773 287.8476  52.0748  1.00272187 28141
APSTAR 7                
1 38107U 12013A   19340.89620410 -.00000087  00000-0  00000-0 0  9999
2 38107   0.0102 358.6298 0002416 242.8570 233.0269  1.00270983 28269
YAHSAT 1B               
1 38245U 12016A   19341.46470281  .00000143  00000-0  00000+0 0  9999
2 38245   0.0200 333.0367 0002637 287.4953  30.3009  1.00268879 28014
AEHF-2 (USA 235)        
1 38254U 12019A   19341.46704524 -.00000260  00000-0  00000+0 0  9993
2 38254   1.7583  38.5766 0002320 203.3195 294.6707  1.00269259 27775
JCSAT-13                
1 38331U 12023A   19341.44979981 -.00000340  00000-0  00000+0 0  9992
2 38331   0.0381 146.7239 0002665 104.4020 110.7470  1.00272636 27673
VINASAT-2               
1 38332U 12023B   19340.88938108 -.00000314  00000-0  00000-0 0  9998
2 38332   0.0114 327.1531 0002213 275.5779 284.6809  1.00273077 22760
NIMIQ 6                 
1 38342U 12026A   19341.46899083 -.00000158  00000-0  00000+0 0  9990
2 38342   0.0193  45.0627 0002779 191.2979 277.3462  1.00272051 27695
CHINASAT 2A (ZX 2A)     
1 38352U 12028A   19340.92411935 -.00000278  00000-0  00000-0 0  9993
2 38352   0.0504  95.8978 0001758 148.5933 261.8518  1.00269553 27474
INTELSAT 19 (IS-19)     
1 38356U 12030A   19340.84220494 -.00000042  00000-0  00000-0 0  9998
2 38356   0.0190 326.0081 0002899 289.4060 289.1352  1.00271704 26554
ECHOSTAR 17             
1 38551U 12035A   19341.19358372 -.00000060  00000-0  00000+0 0  9995
2 38551   0.0183 343.6107 0002392 278.8524 135.7915  1.00269422 27222
METEOSAT-10 (MSG-3)     
1 38552U 12035B   19341.31344861  .00000075  00000-0  00000+0 0  9993
2 38552   1.0451 352.4772 0002228 211.7842 353.6096  1.00269976 27310
SES-5                   
1 38652U 12036A   19341.39355088  .00000050  00000-0  00000+0 0  9999
2 38652   0.0531 109.8734 0002233 136.6450 336.0211  1.00273042 27163
